ANIK F1                 
1 26624U 00076A   17282.24796479 -.00000087  00000-0  00000-0 0  9997
2 26624   0.0126 191.7392 0002793 343.0323 185.2615  1.00269404 11323
ASTRA 2D                
1 26638U 00081A   17282.97553344  .00000035  00000-0  00000+0 0  9991
2 26638   3.8678  69.4852 0001652 121.1320 239.0419  1.00271226 61586
AMC-8 (GE-8)            
1 26639U 00081B   17283.19711556  .00000088  00000-0  00000+0 0  9996
2 26639   0.0468  76.7311 0002542 132.2278 102.0096  1.00272826 61462
SKYNET 4F               
1 26695U 01005B   17283.14639657 -.00000259  00000-0  00000+0 0  9992
2 26695   9.0256  35.8115 0003326 176.6851 185.1847  1.00270135 61070
EUTELSAT 33C            
1 26719U 01011A   17282.70611892  .00000141  00000-0  00000+0 0  9997
2 26719   0.0668  13.5207 0003725 207.0578  85.2224  1.00270919 60762
INTELSAT 10 (IS-10)     
1 26766U 01019A   17282.86816630  .00000112  00000-0  00000+0 0  9999
2 26766   1.7525  84.5931 0001808 137.7012 156.4287  1.00272458 60117
INTELSAT 901 (IS-901)   
1 26824U 01024A   17282.42063174 -.00000154  00000-0  00000+0 0  9996
2 26824   0.0197 263.8002 0002746 303.9937 303.8848  1.00271431 59787
ASTRA 2C                
1 26853U 01025A   17283.11672345  .00000031  00000-0  00000+0 0  9995
2 26853   0.6381  91.2336 0003571 109.0560 280.9515  1.00272346 59778
ARTEMIS                 
1 26863U 01029A   17282.82224318 -.00000376  00000-0  00000+0 0  9993
2 26863  12.8461  31.8861 0002427 216.8369 188.9389  1.00275866 60597
INTELSAT 902 (IS-902)   
1 26900U 01039A   17283.10882566  .00000017  00000-0  00000+0 0  9994
2 26900   0.0339 105.6805 0002972 103.4675 270.9509  1.00272580 58960
EUTELSAT 12 WEST B      
1 26927U 01042A   17283.13591012 -.00000115  00000-0  00000+0 0  9993
2 26927   0.0583  15.3042 0004964 202.6596 197.4469  1.00271526 58728
DIRECTV 4S              
1 26985U 01052A   17283.20671056 -.00000129  00000-0  00000+0 0  9998
2 26985   0.0152 181.0679 0002995  24.1119 147.0644  1.00271707 58199
ECHOSTAR 7              
1 27378U 02006A   17283.50155260 -.00000018  00000-0  00000+0 0  9999
2 27378   0.0472  74.1267 0001429 137.6500 229.3191  1.00273127 57267
INTELSAT 904 (IS-904)   
1 27380U 02007A   17282.72828400  .00000122  00000-0  00000+0 0  9994
2 27380   0.0131 161.4420 0002775  45.9914 118.3986  1.00264946 57277
TDRS 9                  
1 27389U 02011A   17282.24535556 -.00000108  00000-0  00000+0 0  9997
2 27389   5.4783  77.6625 0017844 234.0579 142.7482  1.00271958 58627
JCSAT 2A                
1 27399U 02015A   17283.74679921 -.00000344  00000-0  00000+0 0  9995
2 27399   0.7177  91.8180 0002949 124.1663 180.4862  1.00121341 56821
ASTRA 3A                
1 27400U 02015B   17282.27017579 -.00000291  00000-0  00000+0 0  9991
2 27400   4.0274  68.2058 0002829 148.5077 211.6674  1.00274141 56901
INTELSAT 903 (IS-903)   
1 27403U 02016A   17283.15744001 -.00000240  00000-0  00000+0 0  9994
2 27403   0.0847  93.7252 0002168  54.6487 255.7666  1.00270044 56844
NSS-7                   
1 27414U 02019A   17283.23275487 -.00000170  00000-0  00000+0 0  9997
2 27414   2.1287  82.4060 0002420 114.7228 245.7163  1.00272328 56759
DIRECTV 5 (TEMPO 1)     
1 27426U 02023A   17282.25565462 -.00000069  00000-0  00000-0 0  9999
2 27426   0.0169 226.6965 0003549 347.6128 145.6981  1.00271869 56512
INTELSAT 905 (IS-905)   
1 27438U 02027A   17282.42063174 -.00000198  00000-0  00000+0 0  9990
2 27438   0.0219 240.9056 0002733 314.6162 309.6631  1.00271439 56154
EXPRESS-A4              
1 27441U 02029A   17283.29145661 -.00000259  00000-0  00000+0 0  9992
2 27441   6.2527  55.7654 0006162 107.5221 105.9671  1.00274167 56162
GALAXY 3C (G-3C)        
1 27445U 02030A   17282.21388717 -.00000164  00000-0  00000-0 0  9996
2 27445   0.0191 273.7060 0001805  47.5453  38.7661  1.00270344 14773
EUTELSAT 5 WEST A       
1 27460U 02035A   17283.29910367 -.00000058  00000-0  00000+0 0  9990
2 27460   0.0570  12.4081 0005277 192.3310 277.0473  1.00272438 55949
N-STAR C                
1 27461U 02035B   17282.67417321 -.00000322  00000-0  00000+0 0  9998
2 27461   4.8399  64.1418 0002996  77.1565 255.8876  1.00269501 55843
EUTELSAT 36 WEST A      
1 27508U 02040A   17282.05062599 -.00000258  00000-0  00000-0 0  9990
2 27508   0.0803  36.1301 0002171 240.4618  83.4140  1.00268314 55381
METEOSAT-8 (MSG-1)      
1 27509U 02040B   17283.67608713  .00000126  00000-0  00000+0 0  9996
2 27509   5.0381  57.8504 0001682 258.9055 347.8389  1.00283240 55442
INTELSAT 906 (IS-906)   
1 27513U 02041A   17282.58557465  .00000000  00000-0  00000+0 0  9999
2 27513   0.0288 250.9783 0002855 307.1519  95.2466  1.00272546 55153
KALPANA-1 (METSAT 1)    
1 27525U 02043A   17282.89563991 -.00000089  00000-0  00000-0 0  9998
2 27525   6.5361  54.4756 0014201 225.2035 134.7201  1.00270974 55257
HISPASAT 1D             
1 27528U 02044A   17283.32148053 -.00000232  00000-0  00000+0 0  9998
2 27528   0.0407 334.4437 0003999 258.6938 231.7213  1.00272569 55142
TDRS 10                 
1 27566U 02055A   17282.59353418  .00000068  00000-0  00000+0 0  9999
2 27566   5.2282  57.8776 0008673 207.3666 152.6585  1.00265071 54419
NSS-6                   
1 27603U 02057A   17282.92001399 -.00000285  00000-0  00000-0 0  9991
2 27603   0.0467  91.4762 0002891 133.6764 219.7917  1.00271707 54286
NIMIQ 2                 
1 27632U 02062A   17281.92777323 -.00000242  00000-0  00000-0 0  9998
2 27632   2.2188  81.3570 0001649  46.8990 313.5594  1.00270015 12394
INTELSAT 907 (IS-907)   
1 27683U 03007A   17282.02680092 -.00000215  00000-0  00000-0 0  9992
2 27683   0.0092 218.9663 0002965 339.8734 161.1798  1.00271925 53629
GALAXY 12 (G-12)        
1 27715U 03013B   17283.47385631  .00000042  00000-0  00000+0 0  9992
2 27715   0.0380 108.1581 0002314 109.2554 203.4599  1.00270744 53202
ASIASAT 4               
1 27718U 03014A   17282.91606611 -.00000375  00000-0  00000-0 0  9999
2 27718   0.0124 163.8757 0000154 293.2300  13.5412  1.00271407 53118
HELLAS-SAT 2            
1 27811U 03020A   17283.67068590  .00000135  00000-0  00000+0 0  9994
2 27811   0.0423 202.2441 0006390   6.8918  90.7667  1.00269983 52533
AMC-9 (GE-12)           
1 27820U 03024A   17283.73170905  .00000018  00000-0  00000+0 0  9999
2 27820   0.2181  89.4825 0025864 301.0719 134.0938  0.99972868 52536
THURAYA-2               
1 27825U 03026A   17282.97549341  .00000118  00000-0  00000+0 0  9996
2 27825   5.0203  29.5355 0004949 166.6014 217.8385  1.00274082 52549
OPTUS C1                
1 27831U 03028B   17283.48313318 -.00000163  00000-0  00000+0 0  9996
2 27831   0.0509 135.6664 0004412  62.7177 150.8448  1.00270822 52525
ECHOSTAR 12 (RAINBOW 1) 
1 27852U 03033A   17283.15674272 -.00000214  00000-0  00000+0 0  9995
2 27852   0.0464  80.6460 0001418 130.6583 137.6820  1.00269528 52179
GALAXY 23 (G-23)        
1 27854U 03034A   17283.17618778 -.00000003  00000-0  00000+0 0  9995
2 27854   0.0135 119.3851 0002998  91.6169 110.4347  1.00273405 56738
EUTELSAT 33A            
1 27948U 03043A   17282.82356799  .00000139  00000-0  00000-0 0  9992
2 27948   2.5968  77.8327 0002887 232.7563  35.3857  1.00270689 13669
GALAXY 13 (HORIZONS-1)  
1 27954U 03044A   17283.20316061  .00000032  00000-0  00000+0 0  9992
2 27954   0.0198 137.7960 0001846  76.2775 111.0678  1.00271481 51355
ZHONGXING-20            
1 28082U 03052A   17283.17596900 -.00000339  00000-0  00000+0 0  9993
2 28082   3.7295  70.3325 0003366 162.3204 312.9465  1.00270482 50957
YAMAL 202               
1 28089U 03053A   17283.46160513  .00000103  00000-0  00000+0 0  9998
2 28089   0.0540  90.2161 0003221 127.4665  16.7784  1.00269908 50874
EXPRESS-AM22 (SESAT 2)  
1 28134U 03060A   17282.89715664 -.00000152  00000-0  00000+0 0  9991
2 28134   0.6856  90.8671 0000722 177.9889 152.9409  1.00271368 50469
AMC-10 (GE-10)          
1 28154U 04003A   17283.19690760  .00000072  00000-0  00000+0 0  9994
2 28154   0.0416  78.8722 0001547  87.7217 148.3155  1.00273883 50123
ABS-4 (MOBISAT-1)       
1 28184U 04007A   17283.11672345  .00000026  00000-0  00000+0 0  9991
2 28184   0.0230 260.2734 0001887 294.5616 287.1033  1.00270806 49776
EUTELSAT 7A             
1 28187U 04008A   17282.85562605  .00000034  00000-0  00000+0 0  9991
2 28187   0.0689  24.8734 0005819 177.6576 131.1750  1.00273397 49767
DIRECTV 7S              
1 28238U 04016A   17283.50155361 -.00000016  00000-0  00000+0 0  9998
2 28238   0.0375  41.7498 0003166 164.1346 234.9115  1.00271715 49264
AMC-11 (GE-11)          
1 28252U 04017A   17283.47193450  .00000052  00000-0  00000+0 0  9991
2 28252   0.0472  54.6627 0002767 156.9999 206.5098  1.00272283 48900
INTELSAT 10-02          
1 28358U 04022A   17283.11090863 -.00000026  00000-0  00000+0 0  9991
2 28358   0.0192 150.1242 0001665 156.6486 111.1074  1.00270187 48822
APSTAR 5 (TELSTAR 18)   
1 28364U 04024A   17283.14910632 -.00000309  00000-0  00000+0 0  9992
2 28364   0.0432  97.9778 0002945 109.0546   3.6080  1.00271767 48747
ANIK F2                 
1 28378U 04027A   17283.11785578 -.00000065  00000-0  00000+0 0  9995
2 28378   0.0548  74.7124 0000402 193.1532  42.4351  1.00271434 48544
AMC-15                  
1 28446U 04041A   17283.24321917 -.00000105  00000-0  00000+0 0  9999
2 28446   0.0479  57.0881 0002431 163.1848 141.3048  1.00271631 47582
AMC-16                  
1 28472U 04048A   17282.52142762 -.00000220  00000-0  00000+0 0  9992
2 28472   0.0437  53.4320 0002922 155.9289 271.7059  1.00271779 47006
NSS-10 (AMC-12)         
1 28526U 05003A   17283.14733667 -.00000266  00000-0  00000+0 0  9993
2 28526   0.0365 293.9578 0002981 277.0329 183.5695  1.00271414 46515
XTAR-EUR                
1 28542U 05005A   17281.87030528  .00000139  00000-0  00000+0 0  9995
2 28542   0.0365  95.2089 0003088 116.2281 148.5753  1.00271357 46368
